[{"OBJECT_NAME":"STARLINK-32442","OBJECT_ID":"2024-196Y","EPOCH":"2026-03-09T11:17:40.991712","MEAN_MOTION":15.30190304,"ECCENTRICITY":0.00013505,"INCLINATION":53.1617,"RA_OF_ASC_NODE":102.3112,"ARG_OF_PERICENTER":90.8212,"MEAN_ANOMALY":269.2943,"EPHEMERIS_TYPE":0,"CLASSIFICATION_TYPE":"U","NORAD_CAT_ID":61729,"ELEMENT_SET_NO":999,"REV_AT_EPOCH":7712,"BSTAR":6.764737e-6,"MEAN_MOTION_DOT":-1.59e-6,"MEAN_MOTION_DDOT":0},{"OBJECT_NAME":"CERISE","OBJECT_ID":"1995-033B","EPOCH":"2026-03-09T23:11:27.589056","MEAN_MOTION":15.32047731,"ECCENTRICITY":0.00057118,"INCLINATION":98.325,"RA_OF_ASC_NODE":273.5192,"ARG_OF_PERICENTER":211.8754,"MEAN_ANOMALY":148.214,"EPHEMERIS_TYPE":0,"CLASSIFICATION_TYPE":"U","NORAD_CAT_ID":23606,"ELEMENT_SET_NO":999,"REV_AT_EPOCH":66468,"BSTAR":0.00062940675,"MEAN_MOTION_DOT":0.00019422,"MEAN_MOTION_DDOT":0}]
